[
    {
        "Altitude(m)": 570986.9777139747,
        "Argument of Periapsis(deg)": 0.033114955553567506,
        "Eccentricity": 0.0,
        "Inclination(deg)": 53.0,
        "Latitude(deg)": -50.943919786330596,
        "Longitude(deg)": -101.5257199284356,
        "Mean Anomaly(deg)": -104.08743566211203,
        "RAAN(deg)": 114.95071684264009,
        "Satellite Name": "Starlink Shell 1 518",
        "Satellite Number": 518,
        "Semi-Major Axis(m)": 6931778.249405717,
        "Time(s)": 950
    },
    {
        "Altitude(m)": 571060.762562427,
        "Argument of Periapsis(deg)": 0.03346353403307874,
        "Eccentricity": 0.0,
        "Inclination(deg)": 53.0,
        "Latitude(deg)": -51.131458343335595,
        "Longitude(deg)": -100.62176459999748,
        "Mean Anomaly(deg)": -103.46060445855534,
        "RAAN(deg)": 114.95019807256261,
        "Satellite Name": "Starlink Shell 1 518",
        "Satellite Number": 518,
        "Semi-Major Axis(m)": 6931778.249405717,
        "Time(s)": 960
    },
    {
        "Altitude(m)": 571131.3793464322,
        "Argument of Periapsis(deg)": 0.03381211251258998,
        "Eccentricity": 0.0,
        "Inclination(deg)": 53.0,
        "Latitude(deg)": -51.31129216813599,
        "Longitude(deg)": -99.7102942012559,
        "Mean Anomaly(deg)": -102.83377325499865,
        "RAAN(deg)": 114.94967930248514,
        "Satellite Name": "Starlink Shell 1 518",
        "Satellite Number": 518,
        "Semi-Major Axis(m)": 6931778.249405717,
        "Time(s)": 970
    },
    {
        "Altitude(m)": 571198.7999247315,
        "Argument of Periapsis(deg)": 0.034160690992101214,
        "Eccentricity": 0.0,
        "Inclination(deg)": 53.0,
        "Latitude(deg)": -51.483312248280654,
        "Longitude(deg)": -98.79152312384983,
        "Mean Anomaly(deg)": -102.2069420514419,
        "RAAN(deg)": 114.94916053240766,
        "Satellite Name": "Starlink Shell 1 518",
        "Satellite Number": 518,
        "Semi-Major Axis(m)": 6931778.249405717,
        "Time(s)": 980
    },
    {
        "Altitude(m)": 571262.9974223354,
        "Argument of Periapsis(deg)": 0.034509269471612446,
        "Eccentricity": 0.0,
        "Inclination(deg)": 53.0,
        "Latitude(deg)": -51.64741241142698,
        "Longitude(deg)": -97.86568145767069,
        "Mean Anomaly(deg)": -101.58011084788525,
        "RAAN(deg)": 114.94864176233021,
        "Satellite Name": "Starlink Shell 1 518",
        "Satellite Number": 518,
        "Semi-Major Axis(m)": 6931778.249405717,
        "Time(s)": 990
    }
]